NORAD_CAT_ID,OBJECT_NAME,OBJECT_TYPE,EPOCH,MEAN_MOTION,ECCENTRICITY,INCLINATION,RA_OF_ASC_NODE,ARG_OF_PERICENTER,MEAN_ANOMALY,BSTAR,MEAN_MOTION_DOT,MEAN_MOTION_DDOT,TLE_LINE0,TLE_LINE1,TLE_LINE2,SEMIMAJOR_AXIS,PERIOD,APOGEE,PERIGEE,DECAYED
53439.0,STARLINK-4519,PAYLOAD,2023-11-18 14:57:53,15.08825724,0.0001822,53.2186,284.0723,90.4264,269.6937,0.00032366,4.865e-05,0.0,0 STARLINK-4519,1 53439U 22097BD  23322.62353807  .00004865  00000-0  32366-3 0  9996,2 53439  53.2186 284.0723 0001822  90.4264 269.6937 15.08825724 71186,6917.924,95.438,541.049,538.529,0.0
53439.0,STARLINK-4519,PAYLOAD,2023-11-19 03:40:57,15.08846794,0.0001479,53.2168,281.6911,97.2592,262.8568,8.2695e-05,1.029e-05,0.0,0 STARLINK-4519,1 53439U 22097BD  23323.15344599  .00001029  00000-0  82695-4 0  9993,2 53439  53.2168 281.6911 0001479  97.2592 262.8568 15.08846794 71269,6917.86,95.437,540.748,538.701,0.0
53439.0,STARLINK-4519,PAYLOAD,2023-11-19 21:10:12,15.0884277,0.0001606,53.2164,278.4242,86.2711,273.8465,7.8881e-05,9.68e-06,0.0,0 STARLINK-4519,1 53439U 22097BD  23323.88208756  .00000968  00000-0  78881-4 0  9990,2 53439  53.2164 278.4242 0001606  86.2711 273.8465 15.08842770 71863,6917.872,95.437,540.848,538.626,0.0
53439.0,STARLINK-4519,PAYLOAD,2023-11-20 06:42:30,15.08851718,0.0001703,53.2172,276.6373,93.0679,267.0508,0.00011486,1.541e-05,0.0,0 STARLINK-4519,1 53439U 22097BD  23324.27951995  .00001541  00000-0  11486-3 0  9999,2 53439  53.2172 276.6373 0001703  93.0679 267.0508 15.08851718 71432,6917.845,95.437,540.888,538.531,0.0
53439.0,STARLINK-4519,PAYLOAD,2023-11-21 03:22:31,15.08846047,0.0001636,53.218,272.7714,97.1303,262.9875,-1.1387e-05,-4.69e-06,0.0,0 STARLINK-4519,1 53439U 22097BD  23325.14064530 -.00000469  00000-0 -11387-4 0  9997,2 53439  53.2180 272.7714 0001636  97.1303 262.9875 15.08846047 71565,6917.862,95.437,540.859,538.595,0.0
53439.0,STARLINK-4519,PAYLOAD,2023-11-21 06:33:17,15.08847375,0.0001643,53.2179,272.176,100.3758,259.7419,8.3609e-06,-1.55e-06,0.0,0 STARLINK-4519,1 53439U 22097BD  23325.27312371 -.00000155  00000-0  83609-5 0  9998,2 53439  53.2179 272.1760 0001643 100.3758 259.7419 15.08847375 72077,6917.858,95.437,540.859,538.586,0.0
53439.0,STARLINK-4519,PAYLOAD,2023-11-21 20:51:46,15.08842024,0.0001775,53.2165,269.4997,105.6051,254.5137,6.3159e-06,-1.88e-06,0.0,0 STARLINK-4519,1 53439U 22097BD  23325.86928760 -.00000188  00000-0  63159-5 0  9992,2 53439  53.2165 269.4997 0001775 105.6051 254.5137 15.08842024 72169,6917.874,95.437,540.967,538.511,0.0
53439.0,STARLINK-4519,PAYLOAD,2023-11-22 01:37:55,15.08843792,0.0001796,53.2174,268.6065,112.4963,247.622,5.2672e-05,5.5e-06,0.0,0 STARLINK-4519,1 53439U 22097BD  23326.06800447  .00000550  00000-0  52672-4 0  9995,2 53439  53.2174 268.6065 0001796 112.4963 247.6220 15.08843792 72199,6917.869,95.437,540.976,538.491,0.0
53439.0,STARLINK-4519,PAYLOAD,2023-11-23 03:04:05,15.08852869,0.0001839,53.2174,263.8533,117.1974,242.9206,0.00022852,3.352e-05,0.0,0 STARLINK-4519,1 53439U 22097BD  23327.12783822  .00003352  00000-0  22852-3 0  9999,2 53439  53.2174 263.8533 0001839 117.1974 242.9206 15.08852869 71868,6917.841,95.437,540.978,538.434,0.0
53439.0,STARLINK-4519,PAYLOAD,2023-11-23 18:57:57,15.08832352,0.0001645,53.2167,260.8759,105.7475,254.3698,-2.9676e-05,-7.6e-06,0.0,0 STARLINK-4519,1 53439U 22097BD  23327.79024954 -.00000760  00000-0 -29676-4 0  9990,2 53439  53.2167 260.8759 0001645 105.7475 254.3698 15.08832352 71969,6917.904,95.438,540.907,538.631,0.0
53439.0,STARLINK-4519,PAYLOAD,2023-11-23 20:33:20,15.08833054,0.0001692,53.2173,260.5786,108.9841,251.1334,-9.4445e-05,-1.791e-05,0.0,0 STARLINK-4519,1 53439U 22097BD  23327.85648911 -.00001791  00000-0 -94445-4 0  9993,2 53439  53.2173 260.5786 0001692 108.9841 251.1334 15.08833054 72465,6917.902,95.438,540.937,538.596,0.0
53439.0,STARLINK-4519,PAYLOAD,2023-11-24 04:30:16,15.08827111,0.000158,53.2169,259.091,98.096,262.0211,-0.00015643,-2.776e-05,0.0,0 STARLINK-4519,1 53439U 22097BD  23328.18769478 -.00002776  00000-0 -15643-3 0  9998,2 53439  53.2169 259.0910 0001580  98.0960 262.0211 15.08827111 72517,6917.92,95.438,540.878,538.692,0.0
53439.0,STARLINK-4519,PAYLOAD,2023-11-25 02:45:40,15.08845226,0.0001514,53.2162,254.9259,117.3072,242.8074,5.1221e-05,5.27e-06,0.0,0 STARLINK-4519,1 53439U 22097BD  23329.11504757  .00000527  00000-0  51221-4 0  9992,2 53439  53.2162 254.9259 0001514 117.3072 242.8074 15.08845226 72167,6917.864,95.437,540.777,538.682,0.0
53439.0,STARLINK-4519,PAYLOAD,2023-11-25 04:21:03,15.08847963,0.000154,53.216,254.6282,115.4893,244.6259,0.00013466,1.856e-05,0.0,0 STARLINK-4519,1 53439U 22097BD  23329.18128720  .00001856  00000-0  13466-3 0  9995,2 53439  53.2160 254.6282 0001540 115.4893 244.6259 15.08847963 72667,6917.856,95.437,540.786,538.656,0.0
53439.0,STARLINK-4519,PAYLOAD,2023-11-25 18:39:32,15.08838939,0.0001607,53.217,251.9585,75.6072,284.5099,0.00043981,6.718e-05,0.0,0 STARLINK-4519,1 53439U 22097BD  23329.77745656  .00006718  00000-0  43981-3 0  9990,2 53439  53.2170 251.9585 0001607  75.6072 284.5099 15.08838939 72752,6917.884,95.438,540.86,538.637,0.0
53439.0,STARLINK-4519,PAYLOAD,2023-11-26 02:36:26,15.08872818,0.000171,53.2169,250.468,70.2204,289.8973,0.00081284,0.00012684,0.0,0 STARLINK-4519,1 53439U 22097BD  23330.10864170  .00012684  00000-0  81284-3 0  9999,2 53439  53.2169 250.4680 0001710  70.2204 289.8973 15.08872818 72318,6917.78,95.435,540.828,538.462,0.0
53439.0,STARLINK-4519,PAYLOAD,2023-11-26 04:11:49,15.08875632,0.0001686,53.2167,250.1705,75.1494,284.9684,0.00087076,0.00013611,0.0,0 STARLINK-4519,1 53439U 22097BD  23330.17488113  .00013611  00000-0  87076-3 0  9991,2 53439  53.2167 250.1705 0001686  75.1494 284.9684 15.08875632 72815,6917.771,95.435,540.803,538.47,0.0
53439.0,STARLINK-4519,PAYLOAD,2023-11-26 18:30:19,15.08821274,0.0001083,53.217,247.4964,98.627,261.4844,-0.00054613,-8.964e-05,0.0,0 STARLINK-4519,1 53439U 22097BD  23330.77105472 -.00008964  00000-0 -54613-3 0  9999,2 53439  53.2170 247.4964 0001083  98.6270 261.4844 15.08821274 72415,6917.938,95.439,540.552,539.053,0.0
53439.0,STARLINK-4519,PAYLOAD,2023-11-27 00:51:52,15.08823413,0.0001572,53.2166,246.3054,100.6113,259.5056,-0.00030685,-5.166e-05,0.0,0 STARLINK-4519,1 53439U 22097BD  23331.03601950 -.00005166  00000-0 -30685-3 0  9995,2 53439  53.2166 246.3054 0001572 100.6113 259.5056 15.08823413 72949,6917.931,95.439,540.884,538.709,0.0
53439.0,STARLINK-4519,PAYLOAD,2023-11-27 21:31:52,15.0883973,0.0001354,53.2163,242.4419,101.1805,258.9339,0.00028544,4.258e-05,0.0,0 STARLINK-4519,1 53439U 22097BD  23331.89714032  .00004258  00000-0  28544-3 0  9995,2 53439  53.2163 242.4419 0001354 101.1805 258.9339 15.08839730 73071,6917.881,95.438,540.683,538.81,0.0
53439.0,STARLINK-4519,PAYLOAD,2023-11-28 00:42:39,15.0884332,0.0001924,53.2166,241.8477,130.8487,229.2672,0.00061253,9.475e-05,0.0,0 STARLINK-4519,1 53439U 22097BD  23332.02961942  .00009475  00000-0  61253-3 0  9995,2 53439  53.2166 241.8477 0001924 130.8487 229.2672 15.08843320 72608,6917.87,95.437,541.066,538.404,0.0
53439.0,STARLINK-4519,PAYLOAD,2023-11-28 03:53:25,15.08841061,0.0001428,53.2172,241.252,116.3754,243.7385,0.00028049,4.179e-05,0.0,0 STARLINK-4519,1 53439U 22097BD  23332.16209728  .00004179  00000-0  28049-3 0  9999,2 53439  53.2172 241.2520 0001428 116.3754 243.7385 15.08841061 73112,6917.877,95.437,540.73,538.754,0.0
53439.0,STARLINK-4519,PAYLOAD,2023-11-28 21:22:39,15.08844864,0.0001766,53.2165,237.9779,122.6068,237.5094,0.00027026,4.016e-05,0.0,0 STARLINK-4519,1 53439U 22097BD  23332.89073983  .00004016  00000-0  27026-3 0  9995,2 53439  53.2165 237.9779 0001766 122.6068 237.5094 15.08844864 73229,6917.866,95.437,540.952,538.509,0.0
53439.0,STARLINK-4519,PAYLOAD,2023-11-29 00:33:25,15.08852679,0.0001648,53.2164,237.3835,121.137,238.9784,0.00040828,6.218e-05,0.0,0 STARLINK-4519,1 53439U 22097BD  23333.02321754  .00006218  00000-0  40828-3 0  9994,2 53439  53.2164 237.3835 0001648 121.1370 238.9784 15.08852679 72755,6917.842,95.437,540.847,538.567,0.0
53439.0,STARLINK-4519,PAYLOAD,2023-11-30 00:24:13,15.08848113,0.0001636,53.2167,232.9245,111.4283,248.6884,0.00026447,3.924e-05,0.0,0 STARLINK-4519,1 53439U 22097BD  23334.01681823  .00003924  00000-0  26447-3 0  9992,2 53439  53.2167 232.9245 0001636 111.4283 248.6884 15.08848113 72900,6917.856,95.437,540.852,538.589,0.0
53439.0,STARLINK-4519,PAYLOAD,2023-11-30 22:39:37,15.08835455,0.0001919,53.2158,228.76,126.7444,233.3725,4.4307e-05,4.17e-06,0.0,0 STARLINK-4519,1 53439U 22097BD  23334.94418186  .00000417  00000-0  44307-4 0  9994,2 53439  53.2158 228.7600 0001919 126.7444 233.3725 15.08835455 73046,6917.894,95.438,541.087,538.432,0.0
53439.0,STARLINK-4519,PAYLOAD,2023-12-01 22:30:24,15.08854379,0.0001773,53.2151,224.2999,54.2981,305.8176,0.0005309,8.175e-05,0.0,0 STARLINK-4519,1 53439U 22097BD  23335.93778073  .00008175  00000-0  53090-3 0  9995,2 53439  53.2151 224.2999 0001773  54.2981 305.8176 15.08854379 73681,6917.836,95.437,540.928,538.475,0.0
53439.0,STARLINK-4519,PAYLOAD,2023-12-02 00:05:47,15.0886751,0.0001295,53.2148,224.0044,74.2937,285.8198,0.00097201,0.00015227,0.0,0 STARLINK-4519,1 53439U 22097BD  23336.00401804  .00015227  00000-0  97201-3 0  9997,2 53439  53.2148 224.0044 0001295  74.2937 285.8198 15.08867510 73208,6917.796,95.436,540.557,538.765,0.0
53439.0,STARLINK-4519,PAYLOAD,2023-12-02 01:41:09,15.08891754,0.000136,53.2151,223.7069,104.0612,256.0532,0.002109,0.00033484,0.0,0 STARLINK-4519,1 53439U 22097BD  23336.07025462  .00033484  00000-0  21090-2 0  9993,2 53439  53.2151 223.7069 0001360 104.0612 256.0532 15.08891754 73210,6917.722,95.434,540.528,538.646,0.0
53439.0,STARLINK-4519,PAYLOAD,2023-12-02 22:21:11,15.08835502,9.95e-05,53.2135,219.8384,129.283,230.825,0.00064613,0.00010009,0.0,0 STARLINK-4519,1 53439U 22097BD  23336.93138033  .00010009  00000-0  64613-3 0  9994,2 53439  53.2135 219.8384 0000995 129.2830 230.8250 15.08835502 73836,6917.894,95.438,540.447,539.071,0.0
